*******************************************************************************
Ephemeris / WWW_USER Fri Mar  7 11:24:52 2025 Pasadena, USA      / Horizons    
*******************************************************************************
Target body name: (2018 UG3)                      {source: JPL#15}
Center body name: Earth (399)                     {source: DE441}
Center-site name: Mauna Kea
*******************************************************************************
Start time      : A.D. 2019-Jan-08 04:08:00.0000 UT      
Stop  time      : A.D. 2019-Jan-08 16:48:00.0000 UT      
Step-size       : 1 minutes
*******************************************************************************
Target pole/equ : undefined
Target radii    : undefined                                                    
Center geodetic : 204.5278, 19.8260847, 4.21024   {E-lon(deg),Lat(deg),Alt(km)}
Center cylindric: 204.5278, 6006.35451, 2151.0229 {E-lon(deg),Dxy(km),Dz(km)}
Center pole/equ : ITRF93                          {East-longitude positive}
Center radii    : 6378.137, 6378.137, 6356.752 km {Equator_a, b, pole_c}       
Target primary  : Sun
Vis. interferer : MOON (R_eq= 1737.400) km        {source: DE441}
Rel. light bend : Sun                             {source: DE441}
Rel. lght bnd GM: 1.3271E+11 km^3/s^2                                          
Small-body perts: Yes                             {source: SB441-N16}
Atmos refraction: NO (AIRLESS)
RA format       : HMS
Time format     : CAL 
Calendar mode   : Mixed Julian/Gregorian
RTS-only print  : NO       
EOP file        : eop.250306.p250602                                           
EOP coverage    : DATA-BASED 1962-JAN-20 TO 2025-MAR-06. PREDICTS-> 2025-JUN-01
Units conversion: 1 au= 149597870.700 km, c= 299792.458 km/s, 1 day= 86400.0 s 
Table cut-offs 1: Elevation (-90.0deg=NO ),Airmass (>38.000=NO), Daylight (YES)
Table cut-offs 2: Solar elongation (  0.0,180.0=NO ),Local Hour Angle( 0.0=NO )
Table cut-offs 3: RA/DEC angular rate (     0.0=NO )                           
*******************************************************************************
Initial IAU76/J2000 heliocentric ecliptic osculating elements (au, days, deg.):
  EPOCH=  2458429.5 ! 2018-Nov-07.00 (TDB)         Residual RMS= .46194        
   EC= .4227384440318329   QR= .9585039390071354   TP= 2458393.2526467689      
   OM= 47.27406359171053   W=  314.2704472892426   IN= 6.159551265235018       
  Equivalent ICRF heliocentric cartesian coordinates (au, au/d):
   X= 7.430529944075828E-01  Y= 6.714692173902916E-01  Z= 2.851295671149762E-01
  VX=-1.040372162305418E-02 VY= 1.447630012002514E-02 VZ= 8.505235531163944E-03
Asteroid physical parameters (km, seconds, rotational period in hours):        
   GM= n.a.                RAD= n.a.               ROTPER= n.a.                
   H= 24.5                 G= .150                 B-V= n.a.                   
                           ALBEDO= n.a.            STYP= n.a.                  
*******************************************************************************
 Date__(UT)__HR:MN     R.A._________(ICRF)_________DEC
******************************************************
$$SOE
 2019-Jan-08 10:17     04 12 41.212476 +34 08 01.81002
 2019-Jan-08 10:18     04 12 41.260477 +34 08 01.68448
 2019-Jan-08 10:19     04 12 41.308496 +34 08 01.55881
 2019-Jan-08 10:20     04 12 41.356534 +34 08 01.43301
 2019-Jan-08 10:21     04 12 41.404590 +34 08 01.30709
 2019-Jan-08 10:22     04 12 41.452664 +34 08 01.18104
 2019-Jan-08 10:23     04 12 41.500757 +34 08 01.05486
 2019-Jan-08 10:24     04 12 41.548869 +34 08 00.92855
 2019-Jan-08 10:25     04 12 41.596999 +34 08 00.80212
 2019-Jan-08 10:26     04 12 41.645148 +34 08 00.67556
 2019-Jan-08 10:27     04 12 41.693316 +34 08 00.54888
 2019-Jan-08 10:28     04 12 41.741503 +34 08 00.42208
 2019-Jan-08 10:29     04 12 41.789709 +34 08 00.29515
 2019-Jan-08 10:30     04 12 41.837934 +34 08 00.16810
 2019-Jan-08 10:31     04 12 41.886179 +34 08 00.04093
 2019-Jan-08 10:32     04 12 41.934442 +34 07 59.91364
 2019-Jan-08 10:33     04 12 41.982725 +34 07 59.78622
 2019-Jan-08 10:34     04 12 42.031027 +34 07 59.65868
 2019-Jan-08 10:35     04 12 42.079349 +34 07 59.53103
 2019-Jan-08 10:36     04 12 42.127691 +34 07 59.40325
 2019-Jan-08 10:37     04 12 42.176052 +34 07 59.27536
 2019-Jan-08 10:38     04 12 42.224432 +34 07 59.14735
 2019-Jan-08 10:39     04 12 42.272833 +34 07 59.01922
 2019-Jan-08 10:40     04 12 42.321253 +34 07 58.89097
 2019-Jan-08 10:41     04 12 42.369694 +34 07 58.76261
 2019-Jan-08 10:42     04 12 42.418154 +34 07 58.63413
 2019-Jan-08 10:43     04 12 42.466634 +34 07 58.50553
 2019-Jan-08 10:44     04 12 42.515135 +34 07 58.37682
 2019-Jan-08 10:45     04 12 42.563655 +34 07 58.24800
 2019-Jan-08 10:46     04 12 42.612197 +34 07 58.11907
 2019-Jan-08 10:47     04 12 42.660758 +34 07 57.99002
 2019-Jan-08 10:48     04 12 42.709340 +34 07 57.86085
 2019-Jan-08 10:49     04 12 42.757942 +34 07 57.73158
 2019-Jan-08 10:50     04 12 42.806565 +34 07 57.60220
 2019-Jan-08 10:51     04 12 42.855208 +34 07 57.47270
 2019-Jan-08 10:52     04 12 42.903873 +34 07 57.34310
 2019-Jan-08 10:53     04 12 42.952558 +34 07 57.21339
 2019-Jan-08 10:54     04 12 43.001264 +34 07 57.08356
 2019-Jan-08 10:55     04 12 43.049990 +34 07 56.95363
 2019-Jan-08 10:56     04 12 43.098738 +34 07 56.82360
 2019-Jan-08 10:57     04 12 43.147507 +34 07 56.69345
 2019-Jan-08 10:58     04 12 43.196297 +34 07 56.56320
 2019-Jan-08 10:59     04 12 43.245108 +34 07 56.43285
 2019-Jan-08 11:00     04 12 43.293940 +34 07 56.30239
 2019-Jan-08 11:01     04 12 43.342794 +34 07 56.17182
 2019-Jan-08 11:02     04 12 43.391669 +34 07 56.04116
 2019-Jan-08 11:03     04 12 43.440565 +34 07 55.91038
 2019-Jan-08 11:04     04 12 43.489483 +34 07 55.77951
 2019-Jan-08 11:05     04 12 43.538423 +34 07 55.64854
 2019-Jan-08 11:06     04 12 43.587384 +34 07 55.51746
 2019-Jan-08 11:07     04 12 43.636367 +34 07 55.38629
 2019-Jan-08 11:08     04 12 43.685371 +34 07 55.25501
 2019-Jan-08 11:09     04 12 43.734398 +34 07 55.12364
 2019-Jan-08 11:10     04 12 43.783446 +34 07 54.99216
 2019-Jan-08 11:11     04 12 43.832516 +34 07 54.86059
 2019-Jan-08 11:12     04 12 43.881608 +34 07 54.72892
 2019-Jan-08 11:13     04 12 43.930723 +34 07 54.59716
 2019-Jan-08 11:14     04 12 43.979859 +34 07 54.46530
 2019-Jan-08 11:15     04 12 44.029017 +34 07 54.33335
 2019-Jan-08 11:16     04 12 44.078198 +34 07 54.20130
 2019-Jan-08 11:17     04 12 44.127401 +34 07 54.06915
 2019-Jan-08 11:18     04 12 44.176627 +34 07 53.93692
 2019-Jan-08 11:19     04 12 44.225875 +34 07 53.80459
 2019-Jan-08 11:20     04 12 44.275145 +34 07 53.67217
 2019-Jan-08 11:21     04 12 44.324438 +34 07 53.53966
 2019-Jan-08 11:22     04 12 44.373753 +34 07 53.40705
 2019-Jan-08 11:23     04 12 44.423091 +34 07 53.27436
 2019-Jan-08 11:24     04 12 44.472452 +34 07 53.14158
 2019-Jan-08 11:25     04 12 44.521835 +34 07 53.00871
 2019-Jan-08 11:26     04 12 44.571242 +34 07 52.87576
 2019-Jan-08 11:27     04 12 44.620671 +34 07 52.74271
 2019-Jan-08 11:28     04 12 44.670123 +34 07 52.60958
 2019-Jan-08 11:29     04 12 44.719598 +34 07 52.47637
 2019-Jan-08 11:30     04 12 44.769096 +34 07 52.34306
 2019-Jan-08 11:31     04 12 44.818617 +34 07 52.20968
 2019-Jan-08 11:32     04 12 44.868161 +34 07 52.07621
 2019-Jan-08 11:33     04 12 44.917729 +34 07 51.94266
 2019-Jan-08 11:34     04 12 44.967319 +34 07 51.80902
 2019-Jan-08 11:35     04 12 45.016933 +34 07 51.67531
 2019-Jan-08 11:36     04 12 45.066570 +34 07 51.54151
 2019-Jan-08 11:37     04 12 45.116231 +34 07 51.40763
 2019-Jan-08 11:38     04 12 45.165915 +34 07 51.27368
 2019-Jan-08 11:39     04 12 45.215623 +34 07 51.13964
 2019-Jan-08 11:40     04 12 45.265354 +34 07 51.00553
 2019-Jan-08 11:41     04 12 45.315108 +34 07 50.87134
 2019-Jan-08 11:42     04 12 45.364887 +34 07 50.73707
 2019-Jan-08 11:43     04 12 45.414688 +34 07 50.60273
 2019-Jan-08 11:44     04 12 45.464514 +34 07 50.46831
 2019-Jan-08 11:45     04 12 45.514363 +34 07 50.33382
 2019-Jan-08 11:46     04 12 45.564237 +34 07 50.19925
 2019-Jan-08 11:47     04 12 45.614134 +34 07 50.06461
 2019-Jan-08 11:48     04 12 45.664055 +34 07 49.92990
 2019-Jan-08 11:49     04 12 45.714000 +34 07 49.79512
 2019-Jan-08 11:50     04 12 45.763968 +34 07 49.66026
 2019-Jan-08 11:51     04 12 45.813961 +34 07 49.52534
 2019-Jan-08 11:52     04 12 45.863978 +34 07 49.39034
 2019-Jan-08 11:53     04 12 45.914020 +34 07 49.25528
 2019-Jan-08 11:54     04 12 45.964085 +34 07 49.12015
 2019-Jan-08 11:55     04 12 46.014174 +34 07 48.98495
 2019-Jan-08 11:56     04 12 46.064288 +34 07 48.84968
 2019-Jan-08 11:57     04 12 46.114426 +34 07 48.71435
 2019-Jan-08 11:58     04 12 46.164588 +34 07 48.57895
 2019-Jan-08 11:59     04 12 46.214775 +34 07 48.44349
 2019-Jan-08 12:00     04 12 46.264986 +34 07 48.30797
 2019-Jan-08 12:01     04 12 46.315222 +34 07 48.17238
 2019-Jan-08 12:02     04 12 46.365482 +34 07 48.03673
 2019-Jan-08 12:03     04 12 46.415766 +34 07 47.90101
 2019-Jan-08 12:04     04 12 46.466075 +34 07 47.76524
 2019-Jan-08 12:05     04 12 46.516409 +34 07 47.62941
 2019-Jan-08 12:06     04 12 46.566768 +34 07 47.49352
 2019-Jan-08 12:07     04 12 46.617151 +34 07 47.35756
 2019-Jan-08 12:08     04 12 46.667558 +34 07 47.22156
 2019-Jan-08 12:09     04 12 46.717991 +34 07 47.08549
 2019-Jan-08 12:10     04 12 46.768448 +34 07 46.94937
 2019-Jan-08 12:11     04 12 46.818930 +34 07 46.81319
 2019-Jan-08 12:12     04 12 46.869437 +34 07 46.67695
 2019-Jan-08 12:13     04 12 46.919969 +34 07 46.54067
 2019-Jan-08 12:14     04 12 46.970526 +34 07 46.40433
 2019-Jan-08 12:15     04 12 47.021107 +34 07 46.26793
 2019-Jan-08 12:16     04 12 47.071714 +34 07 46.13149
 2019-Jan-08 12:17     04 12 47.122346 +34 07 45.99499
 2019-Jan-08 12:18     04 12 47.173003 +34 07 45.85844
 2019-Jan-08 12:19     04 12 47.223684 +34 07 45.72184
